     2.100          NAVIGATION                              RINEX VERSION / TYPE
fic2rin                                 10/09/2017 00:24:01 PGM / RUN BY / DATE
                                                            END OF HEADER
 2 17 10  8 10  0  0.0  .311552081257D-03 -.932232069317D-11  .000000000000D+00
     .660000000000D+02  .399375000000D+02  .526379068658D-08  .213334575659D+00
     .221095979214D-05  .171074214159D-01  .767968595028D-05  .515359104729D+04
     .360000000000D+05 -.156462192535D-06  .133129097764D+01  .122934579849D-06
     .947362069341D+00  .228718750000D+03 -.194981513781D+01 -.872322050001D-08
     .393587823084D-09  .100000000000D+01  .197000000000D+04  .000000000000D+00
     .240000000000D+01  .000000000000D+00 -.204890966415D-07  .660000000000D+02
     .288060000000D+05  .400000000000D+01
 3 17 10  8 10  0  0.0 -.586165115237D-04  .477484718431D-11  .000000000000D+00
     .650000000000D+02 -.455625000000D+02  .484555897984D-08 -.119522948750D+01
    -.238791108131D-05  .103160250001D-02  .664405524731D-05  .515363594437D+04
     .360000000000D+05  .260770320892D-07  .243055085500D+01 -.186264514923D-07
     .960289904203D+00  .253625000000D+03  .501845987877D+00 -.823248577322D-08
    -.546094175586D-09  .100000000000D+01  .197000000000D+04  .000000000000D+00
     .240000000000D+01  .000000000000D+00  .232830643654D-08  .650000000000D+02
     .288060000000D+05  .400000000000D+01
 4 17 10  8 10  0  0.0  .421092845500D-04  .829913915368D-11  .000000000000D+00
     .157000000000D+03 -.678750000000D+02  .440732643998D-08  .223357236032D+01
    -.350549817085D-05  .123945280211D-01  .123511999846D-04  .515367247200D+04
     .360000000000D+05 -.320374965668D-06  .240592139297D+00 -.316649675369D-07
     .957447783532D+00  .140625000000D+03  .442860196116D+00 -.786818488434D-08
     .267868300647D-10  .100000000000D+01  .197000000000D+04  .000000000000D+00
     .240000000000D+01  .630000000000D+02 -.558793544769D-08  .157000000000D+03
     .288060000000D+05  .400000000000D+01
 6 17 10  8 10  0  0.0  .403062440455D-03  .250111042988D-11  .000000000000D+00
     .159000000000D+03  .372500000000D+02  .465626538071D-08 -.838874384771D-02
     .198557972908D-05  .556733109988D-03  .758841633797D-05  .515375599670D+04
     .360000000000D+05  .391155481339D-07  .137918096147D+01  .409781932831D-07
     .968113262398D+00  .237937500000D+03 -.115552605029D+01 -.816284001505D-08
     .480377152494D-09  .100000000000D+01  .197000000000D+04  .000000000000D+00
     .240000000000D+01  .000000000000D+00  .465661287308D-08  .159000000000D+03
     .288060000000D+05  .400000000000D+01
 7 17 10  8 10  0  0.0  .296020880342D-03 -.500222085975D-11  .000000000000D+00
     .740000000000D+02  .108687500000D+03  .474734060293D-08 -.834302315195D+00
     .582821667194D-05  .110869624186D-01  .419467687607D-05  .515371976852D+04
     .360000000000D+05  .249594449997D-06 -.173928189520D+01  .102445483208D-06
     .960632468415D+00  .296281250000D+03 -.255370872742D+01 -.854892752572D-08
     .464662212189D-09  .100000000000D+01  .197000000000D+04  .000000000000D+00
     .240000000000D+01  .000000000000D+00 -.111758708954D-07  .740000000000D+02
     .288060000000D+05  .400000000000D+01
 8 17 10  8 10  0  0.0 -.762511044741D-04 -.136424205266D-11  .000000000000D+00
     .600000000000D+02 -.603125000000D+02  .423124767702D-08  .252321413423D+01
    -.300444662571D-05  .268655747641D-02  .125262886286D-04  .515370561790D+04
     .360000000000D+05  .763684511185D-07  .323942964793D+00  .100582838058D-06
     .968034732955D+00  .139968750000D+03 -.631945890809D+00 -.783211195319D-08
     .560737642688D-10  .100000000000D+01  .197000000000D+04  .000000000000D+00
     .240000000000D+01  .000000000000D+00  .558793544769D-08  .600000000000D+02
     .288060000000D+05  .400000000000D+01
 9 17 10  8 10  0  0.0  .454741995782D-03  .568434188608D-11  .000000000000D+00
     .380000000000D+02  .489375000000D+02  .420696095110D-08  .219229283076D+01
     .254064798355D-05  .875183497556D-03  .133197754622D-04  .515377178955D+04
     .360000000000D+05  .353902578354D-07 -.281776221060D+01  .353902578354D-07
     .953648099591D+00  .117375000000D+03  .182864628246D+01 -.784425531615D-08
    -.200365488884D-09  .100000000000D+01  .197000000000D+04  .000000000000D+00
     .240000000000D+01  .000000000000D+00  .931322574615D-09  .380000000000D+02
     .288060000000D+05  .400000000000D+01
10 17 10  8 10  0  0.0  .837845727801D-04  .898126018001D-11  .000000000000D+00
     .260000000000D+02 -.432500000000D+02  .476591280511D-08 -.220452604578D+01
    -.222772359848D-05  .282384594902D-02  .644847750664D-05  .515366451645D+04
     .360000000000D+05 -.186264514923D-07  .242693275723D+01 -.391155481339D-07
     .960425231440D+00  .255000000000D+03 -.286715900592D+01 -.820891336276D-08
    -.430375069706D-09  .100000000000D+01  .197000000000D+04  .000000000000D+00
     .240000000000D+01  .000000000000D+00  .186264514923D-08  .260000000000D+02
     .288060000000D+05  .400000000000D+01
11 17 10  8 10  0  0.0 -.720105599612D-03 -.204636307899D-11  .000000000000D+00
     .250000000000D+02  .472187500000D+02  .606132390704D-08 -.813083804661D+00
     .251084566116D-05  .170552891213D-01  .105667859316D-04  .515373418427D+04
     .360000000000D+05 -.258907675743D-06  .975919671223D+00  .931322574615D-07
     .902313092894D+00  .147406250000D+03  .170431922104D+01 -.907359223725D-08
     .592167523297D-09  .100000000000D+01  .197000000000D+04  .000000000000D+00
     .240000000000D+01  .000000000000D+00 -.121071934700D-07  .250000000000D+02
     .288060000000D+05  .400000000000D+01
12 17 10  8 10  0  0.0  .369971152395D-03 -.147792889038D-11  .000000000000D+00
     .270000000000D+02 -.810625000000D+02  .428303554848D-08 -.143876200729D+01
    -.410899519920D-05  .653618201613D-02  .415742397308D-05  .515370605659D+04
     .360000000000D+05  .203028321266D-06 -.651523576332D+00  .428408384323D-07
     .988453085816D+00  .313406250000D+03  .912404606091D+00 -.811855245601D-08
    -.233224000430D-09  .100000000000D+01  .197000000000D+04  .000000000000D+00
     .240000000000D+01  .000000000000D+00 -.125728547573D-07  .270000000000D+02
     .288060000000D+05  .400000000000D+01
13 17 10  8 10  0  0.0 -.924984924495D-04 -.454747350886D-12  .000000000000D+00
     .112000000000D+03  .517812500000D+02  .392159192147D-08  .427332056553D+00
     .267475843430D-05  .353568082210D-02  .132489949465D-04  .515367054558D+04
     .360000000000D+05 -.372529029846D-07 -.268957707872D+01 -.949949026108D-07
     .969528063638D+00  .127812500000D+03  .172503179891D+01 -.781639701288D-08
    -.113219001740D-09  .100000000000D+01  .197000000000D+04  .000000000000D+00
     .240000000000D+01  .000000000000D+00 -.111758708954D-07  .112000000000D+03
     .288060000000D+05  .400000000000D+01
14 17 10  8 10  0  0.0 -.856909900904D-04 -.909494701773D-12  .000000000000D+00
     .106000000000D+03  .470625000000D+02  .408517016373D-08  .168899352301D+01
     .242702662945D-05  .931352586485D-02  .122301280499D-04  .515371058273D+04
     .360000000000D+05 -.134110450745D-06 -.272992003496D+01 -.180676579475D-06
     .962078094803D+00  .143468750000D+03 -.194894081458D+01 -.784639826255D-08
    -.671456540289D-10  .100000000000D+01  .197000000000D+04  .000000000000D+00
     .240000000000D+01  .000000000000D+00 -.977888703346D-08  .106000000000D+03
     .288060000000D+05  .400000000000D+01
15 17 10  8 10  0  0.0 -.356463715434D-03 -.341060513165D-12  .000000000000D+00
     .730000000000D+02  .202187500000D+02  .488734643474D-08  .116282342506D+01
     .127963721752D-05  .970676878933D-02  .129230320454D-04  .515363534546D+04
     .360000000000D+05 -.180676579475D-06 -.288266614090D+01  .204890966415D-07
     .929255089010D+00  .115406250000D+03  .613806846239D+00 -.825248660633D-08
    -.407874132452D-09  .100000000000D+01  .197000000000D+04  .000000000000D+00
     .340000000000D+01  .000000000000D+00 -.107102096081D-07  .730000000000D+02
     .288060000000D+05  .400000000000D+01
16 17 10  8 10  0  0.0  .369562767446D-04 -.113686837722D-12  .000000000000D+00
     .360000000000D+02 -.970000000000D+02  .415660171057D-08  .287515057189D+01
    -.498257577419D-05  .931430654600D-02  .499188899994D-05  .515377209473D+04
     .360000000000D+05 -.121071934700D-06 -.632649027754D+00 -.122934579849D-06
     .988925873144D+00  .299437500000D+03  .458715134024D+00 -.791390107432D-08
    -.290726395636D-09  .100000000000D+01  .197000000000D+04  .000000000000D+00
     .240000000000D+01  .000000000000D+00 -.107102096081D-07  .360000000000D+02
     .288060000000D+05  .400000000000D+01
17 17 10  8 10  0  0.0 -.152255408466D-03  .227373675443D-11  .000000000000D+00
     .660000000000D+02 -.705625000000D+02  .379122934849D-08  .200207069302D+01
    -.375136733055D-05  .119321395177D-01  .136066228151D-04  .515370347214D+04
     .360000000000D+05  .353902578354D-07  .383284413883D+00 -.283122062683D-06
     .981317106014D+00  .125781250000D+03 -.184171695518D+01 -.752317051311D-08
     .106433004790D-09  .100000000000D+01  .197000000000D+04  .000000000000D+00
     .240000000000D+01  .000000000000D+00 -.111758708954D-07  .660000000000D+02
     .288060000000D+05  .400000000000D+01
18 17 10  8 10  0  0.0  .630979891866D-03  .568434188608D-12  .000000000000D+00
     .670000000000D+02 -.495625000000D+02  .550415784170D-08 -.279705977953D+01
    -.246800482273D-05  .181436330313D-01  .537186861038D-05  .515362834740D+04
     .360000000000D+05  .264495611191D-06  .238000526230D+01 -.316649675369D-07
     .926039990060D+00  .255156250000D+03 -.177901524617D+01 -.835141929871D-08
    -.355371945525D-09  .100000000000D+01  .197000000000D+04  .000000000000D+00
     .240000000000D+01  .000000000000D+00 -.111758708954D-07  .670000000000D+02
     .288060000000D+05  .400000000000D+01
